[{"OBJECT_NAME":"SL-14 R/B","OBJECT_ID":"1986-006B","EPOCH":"2026-03-28T03:53:40.925472","MEAN_MOTION":14.86843628,"ECCENTRICITY":0.00757509,"INCLINATION":82.525,"RA_OF_ASC_NODE":242.3471,"ARG_OF_PERICENTER":210.5255,"MEAN_ANOMALY":149.1544,"EPHEMERIS_TYPE":0,"CLASSIFICATION_TYPE":"U","NORAD_CAT_ID":16496,"ELEMENT_SET_NO":999,"REV_AT_EPOCH":15195,"BSTAR":0.00010339888,"MEAN_MOTION_DOT":9.98e-6,"MEAN_MOTION_DDOT":0},{"OBJECT_NAME":"COSMOS 1743","OBJECT_ID":"1986-034A","EPOCH":"2026-03-27T22:22:07.218336","MEAN_MOTION":15.60026052,"ECCENTRICITY":0.0004094,"INCLINATION":82.5299,"RA_OF_ASC_NODE":54.6624,"ARG_OF_PERICENTER":173.9679,"MEAN_ANOMALY":186.1627,"EPHEMERIS_TYPE":0,"CLASSIFICATION_TYPE":"U","NORAD_CAT_ID":16719,"ELEMENT_SET_NO":999,"REV_AT_EPOCH":18309,"BSTAR":0.00053018,"MEAN_MOTION_DOT":0.00043051,"MEAN_MOTION_DDOT":0},{"OBJECT_NAME":"SL-14 R/B","OBJECT_ID":"1986-046B","EPOCH":"2026-03-28T04:41:01.900896","MEAN_MOTION":14.85607984,"ECCENTRICITY":0.0023495,"INCLINATION":82.4801,"RA_OF_ASC_NODE":62.6917,"ARG_OF_PERICENTER":163.1261,"MEAN_ANOMALY":197.0742,"EPHEMERIS_TYPE":0,"CLASSIFICATION_TYPE":"U","NORAD_CAT_ID":16792,"ELEMENT_SET_NO":999,"REV_AT_EPOCH":12915,"BSTAR":6.0958947e-5,"MEAN_MOTION_DOT":5.54e-6,"MEAN_MOTION_DDOT":0},{"OBJECT_NAME":"SL-14 R/B","OBJECT_ID":"1986-055B","EPOCH":"2026-03-28T02:56:02.084640","MEAN_MOTION":14.85658391,"ECCENTRICITY":0.00172995,"INCLINATION":82.5171,"RA_OF_ASC_NODE":109.3446,"ARG_OF_PERICENTER":271.3374,"MEAN_ANOMALY":147.5268,"EPHEMERIS_TYPE":0,"CLASSIFICATION_TYPE":"U","NORAD_CAT_ID":16882,"ELEMENT_SET_NO":999,"REV_AT_EPOCH":12210,"BSTAR":4.6342488e-5,"MEAN_MOTION_DOT":4.26e-6,"MEAN_MOTION_DDOT":0},{"OBJECT_NAME":"AJISAI (EGS)","OBJECT_ID":"1986-061A","EPOCH":"2026-03-28T06:53:46.180320","MEAN_MOTION":12.4451565,"ECCENTRICITY":0.0011328,"INCLINATION":50.0111,"RA_OF_ASC_NODE":36.1585,"ARG_OF_PERICENTER":334.9749,"MEAN_ANOMALY":188.2521,"EPHEMERIS_TYPE":0,"CLASSIFICATION_TYPE":"U","NORAD_CAT_ID":16908,"ELEMENT_SET_NO":999,"REV_AT_EPOCH":47031,"BSTAR":3.9726986e-5,"MEAN_MOTION_DOT":-9.2e-7,"MEAN_MOTION_DDOT":0},{"OBJECT_NAME":"SL-14 R/B","OBJECT_ID":"1987-024B","EPOCH":"2026-03-27T22:51:35.532576","MEAN_MOTION":14.86149012,"ECCENTRICITY":0.00177321,"INCLINATION":82.5251,"RA_OF_ASC_NODE":75.5932,"ARG_OF_PERICENTER":195.4786,"MEAN_ANOMALY":164.5891,"EPHEMERIS_TYPE":0,"CLASSIFICATION_TYPE":"U","NORAD_CAT_ID":17567,"ELEMENT_SET_NO":999,"REV_AT_EPOCH":9084,"BSTAR":5.3661276e-5,"MEAN_MOTION_DOT":4.96e-6,"MEAN_MOTION_DDOT":0},{"OBJECT_NAME":"COSMOS 1833","OBJECT_ID":"1987-027A","EPOCH":"2026-03-27T23:34:44.969952","MEAN_MOTION":14.13047875,"ECCENTRICITY":0.00233157,"INCLINATION":70.9173,"RA_OF_ASC_NODE":287.57,"ARG_OF_PERICENTER":187.6565,"MEAN_ANOMALY":172.4204,"EPHEMERIS_TYPE":0,"CLASSIFICATION_TYPE":"U","NORAD_CAT_ID":17589,"ELEMENT_SET_NO":999,"REV_AT_EPOCH":1290,"BSTAR":-0.00012226987,"MEAN_MOTION_DOT":-2.77e-6,"MEAN_MOTION_DDOT":0},{"OBJECT_NAME":"SL-16 R/B","OBJECT_ID":"1987-027B","EPOCH":"2026-03-28T06:08:37.834080","MEAN_MOTION":14.1716559,"ECCENTRICITY":0.00028567,"INCLINATION":71.0014,"RA_OF_ASC_NODE":237.3672,"ARG_OF_PERICENTER":97.2203,"MEAN_ANOMALY":262.9245,"EPHEMERIS_TYPE":0,"CLASSIFICATION_TYPE":"U","NORAD_CAT_ID":17590,"ELEMENT_SET_NO":999,"REV_AT_EPOCH":1797,"BSTAR":-1.0325331e-5,"MEAN_MOTION_DOT":-6.9e-7,"MEAN_MOTION_DDOT":0},{"OBJECT_NAME":"SL-14 R/B","OBJECT_ID":"1987-038B","EPOCH":"2026-03-27T21:20:51.063360","MEAN_MOTION":14.85385145,"ECCENTRICITY":0.0020731,"INCLINATION":82.4978,"RA_OF_ASC_NODE":279.6579,"ARG_OF_PERICENTER":103.5342,"MEAN_ANOMALY":256.8185,"EPHEMERIS_TYPE":0,"CLASSIFICATION_TYPE":"U","NORAD_CAT_ID":17912,"ELEMENT_SET_NO":999,"REV_AT_EPOCH":8193,"BSTAR":5.2733e-5,"MEAN_MOTION_DOT":4.8e-6,"MEAN_MOTION_DDOT":0},{"OBJECT_NAME":"COSMOS 1844","OBJECT_ID":"1987-041A","EPOCH":"2026-03-28T03:21:02.007648","MEAN_MOTION":14.14556004,"ECCENTRICITY":0.00309951,"INCLINATION":70.9014,"RA_OF_ASC_NODE":355.2615,"ARG_OF_PERICENTER":350.9526,"MEAN_ANOMALY":9.1033,"EPHEMERIS_TYPE":0,"CLASSIFICATION_TYPE":"U","NORAD_CAT_ID":17973,"ELEMENT_SET_NO":999,"REV_AT_EPOCH":619,"BSTAR":0.00021457987,"MEAN_MOTION_DOT":3.66e-6,"MEAN_MOTION_DDOT":0},{"OBJECT_NAME":"SL-14 R/B","OBJECT_ID":"1987-055B","EPOCH":"2026-03-28T03:10:51.357504","MEAN_MOTION":14.85647373,"ECCENTRICITY":0.00195675,"INCLINATION":82.5008,"RA_OF_ASC_NODE":331.6523,"ARG_OF_PERICENTER":315.904,"MEAN_ANOMALY":44.0615,"EPHEMERIS_TYPE":0,"CLASSIFICATION_TYPE":"U","NORAD_CAT_ID":18153,"ELEMENT_SET_NO":999,"REV_AT_EPOCH":7267,"BSTAR":4.4588915e-5,"MEAN_MOTION_DOT":4.11e-6,"MEAN_MOTION_DDOT":0},{"OBJECT_NAME":"COSMOS 1867","OBJECT_ID":"1987-060A","EPOCH":"2026-03-28T03:56:22.402752","MEAN_MOTION":14.31505833,"ECCENTRICITY":0.00148036,"INCLINATION":65.0092,"RA_OF_ASC_NODE":254.9648,"ARG_OF_PERICENTER":279.7329,"MEAN_ANOMALY":80.2083,"EPHEMERIS_TYPE":0,"CLASSIFICATION_TYPE":"U","NORAD_CAT_ID":18187,"ELEMENT_SET_NO":999,"REV_AT_EPOCH":2258,"BSTAR":3.686416e-5,"MEAN_MOTION_DOT":-2.0e-8,"MEAN_MOTION_DDOT":0},{"OBJECT_NAME":"SL-14 R/B","OBJECT_ID":"1988-001B","EPOCH":"2026-03-28T06:20:00.229056","MEAN_MOTION":14.85547995,"ECCENTRICITY":0.0018288,"INCLINATION":82.5162,"RA_OF_ASC_NODE":177.8962,"ARG_OF_PERICENTER":172.2874,"MEAN_ANOMALY":187.8627,"EPHEMERIS_TYPE":0,"CLASSIFICATION_TYPE":"U","NORAD_CAT_ID":18749,"ELEMENT_SET_NO":999,"REV_AT_EPOCH":4478,"BSTAR":5.7336344e-5,"MEAN_MOTION_DOT":5.21e-6,"MEAN_MOTION_DDOT":0},{"OBJECT_NAME":"COSMOS 1933","OBJECT_ID":"1988-020A","EPOCH":"2026-03-27T22:00:09.971712","MEAN_MOTION":15.18151155,"ECCENTRICITY":0.0005137,"INCLINATION":82.5122,"RA_OF_ASC_NODE":232.8735,"ARG_OF_PERICENTER":127.5935,"MEAN_ANOMALY":232.5766,"EPHEMERIS_TYPE":0,"CLASSIFICATION_TYPE":"U","NORAD_CAT_ID":18958,"ELEMENT_SET_NO":999,"REV_AT_EPOCH":5299,"BSTAR":0.00020675,"MEAN_MOTION_DOT":4.252e-5,"MEAN_MOTION_DDOT":0},{"OBJECT_NAME":"SL-3 R/B","OBJECT_ID":"1988-032B","EPOCH":"2026-03-28T05:32:46.125024","MEAN_MOTION":15.20107803,"ECCENTRICITY":0.00262708,"INCLINATION":97.5211,"RA_OF_ASC_NODE":70.422,"ARG_OF_PERICENTER":165.3561,"MEAN_ANOMALY":194.8441,"EPHEMERIS_TYPE":0,"CLASSIFICATION_TYPE":"U","NORAD_CAT_ID":19046,"ELEMENT_SET_NO":999,"REV_AT_EPOCH":5492,"BSTAR":0.0002685058,"MEAN_MOTION_DOT":5.783e-5,"MEAN_MOTION_DDOT":0},{"OBJECT_NAME":"SL-16 R/B","OBJECT_ID":"1988-039B","EPOCH":"2026-03-28T05:31:22.329120","MEAN_MOTION":14.1961881,"ECCENTRICITY":0.00236375,"INCLINATION":71.0166,"RA_OF_ASC_NODE":29.3423,"ARG_OF_PERICENTER":307.7783,"MEAN_ANOMALY":52.1201,"EPHEMERIS_TYPE":0,"CLASSIFICATION_TYPE":"U","NORAD_CAT_ID":19120,"ELEMENT_SET_NO":999,"REV_AT_EPOCH":96101,"BSTAR":0.00010599296,"MEAN_MOTION_DOT":1.76e-6,"MEAN_MOTION_DDOT":0},{"OBJECT_NAME":"COSMOS 1953","OBJECT_ID":"1988-050A","EPOCH":"2026-03-28T05:10:43.346208","MEAN_MOTION":15.28807385,"ECCENTRICITY":0.00123943,"INCLINATION":82.5083,"RA_OF_ASC_NODE":139.6116,"ARG_OF_PERICENTER":64.8657,"MEAN_ANOMALY":295.3867,"EPHEMERIS_TYPE":0,"CLASSIFICATION_TYPE":"U","NORAD_CAT_ID":19210,"ELEMENT_SET_NO":999,"REV_AT_EPOCH":4061,"BSTAR":0.00026575134,"MEAN_MOTION_DOT":7.488e-5,"MEAN_MOTION_DDOT":0}]
